OBJECT_NAME,OBJECT_ID,EPOCH,MEAN_MOTION,ECCENTRICITY,INCLINATION,RA_OF_ASC_NODE,ARG_OF_PERICENTER,MEAN_ANOMALY,EPHEMERIS_TYPE,CLASSIFICATION_TYPE,NORAD_CAT_ID,ELEMENT_SET_NO,REV_AT_EPOCH,BSTAR,MEAN_MOTION_DOT,MEAN_MOTION_DDOT
STARLINK-31242,2024-019M,2026-05-18T04:53:11.001984,15.27579392,.0001711,43.0062,216.3473,256.4721,103.5940,0,U,58864,999,12971,-.73051E-4,-.2272E-4,0
STARLINK-31223,2024-019N,2026-05-18T04:55:02.388864,15.27556415,.0001503,43.0077,216.3632,232.8105,127.2610,0,U,58865,999,12969,.16444E-4,.19E-5,0
STARLINK-31219,2024-019P,2026-05-17T15:46:38.578080,15.27559057,.00013079,43.0003,219.1288,273.7329,86.3374,0,U,58866,999,12961,-.75007053E-4,-.2324E-4,0
STARLINK-31198,2024-019Q,2026-05-17T22:16:11.904384,15.27568030,.00013441,43.0003,217.7020,278.7786,81.2913,0,U,58867,999,12965,-.2785548E-4,-.1028E-4,0
STARLINK-31196,2024-019R,2026-05-18T05:30:11.560608,15.27569585,.0001518,43.0006,216.5365,269.4111,90.6567,0,U,58868,999,12969,-.13505E-4,-.634E-5,0
STARLINK-31203,2024-019S,2026-05-17T14:29:49.030944,15.27567738,.0001498,43.0034,216.1044,266.6176,93.4504,0,U,58869,999,12966,-.9266E-5,-.517E-5,0
STARLINK-31201,2024-019T,2026-05-17T14:01:20.318880,15.27593222,.0001234,43.0008,219.4398,267.8965,92.1745,0,U,58870,999,12960,.55185E-4,.1257E-4,0
STARLINK-31214,2024-019U,2026-05-17T22:10:38.571456,15.27577052,.00012383,42.9994,217.6770,274.6288,85.4422,0,U,58871,999,12965,.30735185E-4,.584E-5,0
STARLINK-31215,2024-019V,2026-05-18T04:30:58.420224,15.27575579,.0001122,43.0022,216.2322,273.0143,87.0580,0,U,58872,999,12969,.51833E-5,-.119E-5,0
STARLINK-31177,2024-019W,2026-05-17T14:16:09.944256,15.27566597,.0001432,43.0012,219.5137,265.6421,94.4267,0,U,58873,999,12962,-.52713E-4,-.1712E-4,0
STARLINK-30945,2024-019X,2026-05-17T15:04:15.406176,15.27580172,.00016088,43.0020,219.7550,265.9510,94.1158,0,U,58874,999,12962,.29222268E-4,.542E-5,0
STARLINK-31212,2024-019Y,2026-05-17T21:57:41.909760,15.27572966,.0001295,43.0054,217.6213,273.6239,86.4464,0,U,58875,999,12965,-.78307703E-4,-.2416E-4,0
STARLINK-31306,2024-020A,2026-05-18T01:09:39.413376,15.30196123,.0000957,53.1605,0.0142,66.3930,293.7171,0,U,58876,999,12987,-.14767E-4,-.796E-5,0
STARLINK-31326,2024-020B,2026-05-18T00:25:16.598208,15.31702458,.0001596,53.1606,0.5301,92.3698,267.7486,0,U,58877,999,12868,.21154E-3,.6205E-4,0
STARLINK-31300,2024-020C,2026-05-17T23:40:10.062912,15.30189319,.000127,53.1616,0.3391,116.3419,243.7713,0,U,58878,999,12868,-.14533E-5,-.402E-5,0
STARLINK-31296,2024-020D,2026-05-17T22:07:33.147552,15.30190887,.00010505,53.1608,335.0681,104.4796,255.6321,0,U,58879,999,12903,-.1662726E-5,-.408E-5,0
STARLINK-31328,2024-020E,2026-05-17T23:40:06.199104,15.30191889,.0001205,53.1610,345.3348,78.4945,281.6191,0,U,58880,999,12889,.87802E-5,-.99E-6,0
STARLINK-31260,2024-020F,2026-05-17T23:50:47.864256,15.30186969,.0000821,53.1603,0.3836,99.7902,260.3192,0,U,58881,999,12868,.91701E-4,.2357E-4,0
STARLINK-31323,2024-020G,2026-05-18T04:00:01.998720,15.33554467,.0001307,53.1584,359.5497,85.6807,165.4440,0,U,58882,999,590,.36275E-4,.821E-5,0
STARLINK-31209,2024-020H,2026-05-18T00:53:39.129216,15.34408169,.0001054,53.1585,359.9502,99.6674,260.4447,0,U,58883,999,12869,-.53937E-4,-.2198E-4,0
STARLINK-31315,2024-020J,2026-05-17T23:33:59.386176,15.30187641,.0000965,53.1607,334.6114,97.0022,263.1089,0,U,58884,999,12904,-.34689E-4,-.1386E-4,0
STARLINK-31318,2024-020K,2026-05-18T00:18:32.927040,15.31701773,.0001489,53.1608,0.4933,93.2473,266.8699,0,U,58885,999,12868,.18704E-4,.215E-5,0
STARLINK-31320,2024-020L,2026-05-18T02:18:22.041216,15.34383814,.0000941,53.1597,359.6036,86.2119,273.8991,0,U,58886,999,12870,.11422E-3,.3483E-4,0
STARLINK-31321,2024-020M,2026-05-18T03:16:42.513888,15.30497707,.000209,53.1623,359.8542,117.5850,242.5363,0,U,58887,999,12986,.12815E-2,.38143E-3,0
STARLINK-31007,2024-020P,2026-05-17T23:44:06.516384,15.34384239,.0000985,53.1604,0.3498,113.3600,246.7506,0,U,58889,999,12868,-.11409E-4,-.761E-5,0
STARLINK-31230,2024-020Q,2026-05-18T00:55:52.924800,15.34395386,.0000898,53.1612,357.8533,64.4050,295.7046,0,U,58890,999,12872,.38513E-5,-.246E-5,0
STARLINK-31245,2024-020R,2026-05-17T20:48:15.258528,15.34387879,.00017217,53.1590,319.3365,69.5768,290.5419,0,U,58891,999,13040,-.45188938E-4,-.1902E-4,0
STARLINK-31255,2024-020T,2026-05-18T00:56:40.860384,15.34392666,.0001248,53.1611,359.9594,89.7948,270.3197,0,U,58893,999,12869,.36368E-4,.852E-5,0
STARLINK-31243,2024-020U,2026-05-18T00:11:49.781184,15.31706419,.0000819,53.1604,0.4719,48.6049,311.5022,0,U,58894,999,12868,-.5394E-5,-.532E-5,0
STARLINK-31218,2024-020V,2026-05-17T23:58:24.534048,15.31691750,.0001615,53.1583,0.4142,96.3518,263.7667,0,U,58895,999,12868,-.54214E-4,-.2047E-4,0
STARLINK-31190,2024-020X,2026-05-18T00:05:06.707040,15.31700051,.0001252,53.1612,0.4424,110.8080,249.3056,0,U,58897,999,12868,-.54553E-5,-.534E-5,0
LEMUR-2-NIMBUS2000,2024-022A,2026-05-18T01:10:28.439328,15.38970229,.0008088,97.4133,347.6922,217.2396,142.8290,0,U,58899,999,12763,.30274E-3,.1161E-3,0
LEMUR-2-VALHALLA,2024-022B,2026-05-18T00:56:41.879904,15.38702254,.0008721,97.4130,347.6876,212.9267,147.1436,0,U,58900,999,12763,.2826E-3,.10739E-3,0
LEMUR-2-OBA-NI-JESU,2024-022D,2026-05-18T01:21:31.275936,15.86757080,.0005476,97.3876,0.6028,168.8152,191.3242,0,U,58902,999,12851,.85812E-3,.222977E-2,0
LEMUR-2-CAEL,2024-022E,2026-05-18T03:20:01.646880,15.39929376,.0007583,97.4114,348.6727,191.9146,168.1922,0,U,58903,999,12771,.29793E-3,.11789E-3,0
GEESAT-2 01,2024-023A,2026-05-18T03:52:16.718304,14.83140455,.0005657,49.9937,133.1489,276.6439,83.3855,0,U,58905,999,12445,.12593E-3,.812E-5,0
GEESAT-2 02,2024-023B,2026-05-18T03:30:02.329056,14.83131924,.0015132,49.9976,133.3585,245.3393,114.5969,0,U,58906,999,12445,.12176E-3,.776E-5,0
GEESAT-2 03,2024-023C,2026-05-18T05:00:29.876832,14.96932426,.0006373,50.0011,106.1151,280.3787,79.6438,0,U,58907,999,12483,.78949E-4,.661E-5,0
GEESAT-2 04,2024-023D,2026-05-18T04:25:33.983040,14.97023348,.000655,49.9926,105.2763,283.5978,76.4236,0,U,58908,999,12483,.81885E-4,.698E-5,0
GEESAT-2 05,2024-023E,2026-05-18T04:13:49.671840,14.83144199,.0011472,50.0037,133.3041,308.2805,51.7100,0,U,58909,999,12446,.12821E-3,.83E-5,0
GEESAT-2 06,2024-023F,2026-05-18T05:08:33.961344,15.03846671,.000615,49.9883,83.1066,299.3957,60.6375,0,U,58910,999,12513,.19582E-3,.2457E-4,0
GEESAT-2 07,2024-023G,2026-05-18T03:19:36.175296,14.83148914,.001078,50.0047,133.8778,304.1568,55.8348,0,U,58911,999,12445,.12971E-3,.843E-5,0
GEESAT-2 08,2024-023H,2026-05-18T04:34:48.438624,14.83141937,.0004229,49.9885,132.1638,237.8529,122.1998,0,U,58912,999,12446,.14455E-3,.966E-5,0
GEESAT-2 09,2024-023J,2026-05-18T04:02:43.641888,14.83121920,.0022274,50.0025,133.1680,253.0777,106.7719,0,U,58913,999,12446,.12169E-3,.776E-5,0
GEESAT-2 10,2024-023K,2026-05-18T03:40:33.024000,14.83142978,.0010086,49.9933,133.0812,244.0849,115.9050,0,U,58914,999,12445,.12281E-3,.786E-5,0
GEESAT-2 11,2024-023L,2026-05-18T04:23:46.999104,14.83120924,.0019596,49.9988,132.9249,356.5905,3.4896,0,U,58915,999,12446,.15525E-3,.1053E-4,0
2024-024B,2024-024B,2026-05-18T03:42:07.605216,15.21797455,.0015596,97.3076,205.4083,231.8005,128.1827,0,U,58918,999,12678,.22992E-3,.5166E-4,0
2024-024C,2024-024C,2026-05-18T05:17:26.090304,15.73897118,.0004699,97.3156,226.4335,231.8437,128.2404,0,U,58919,999,12817,.72881E-3,.104018E-2,0
NEXSAT-1,2024-024E,2026-05-18T05:14:43.868256,15.33139246,.0007396,97.3058,212.6225,212.5024,147.5764,0,U,58921,999,12730,.16124E-3,.5087E-4,0
2024-024F,2024-024F,2026-05-18T05:12:06.074208,15.21529043,.0014,97.3043,203.6595,142.0756,218.1469,0,U,58922,999,12670,.28195E-3,.6298E-4,0
2024-024J,2024-024J,2026-05-18T05:01:41.029824,15.70584499,.0005088,97.3130,228.0159,188.5406,171.5771,0,U,58925,999,16499,.51844E-3,.64022E-3,0
PACE,2024-025A,2026-05-18T02:04:13.185408,14.65515849,.0002359,98.0951,69.8498,29.6117,330.5219,0,U,58928,999,12152,.53524E-4,.243E-5,0
COSMOS 2575,2024-026A,2026-05-18T05:03:27.053856,15.75381042,.000338,96.6219,23.6052,88.7693,271.3962,0,U,58929,999,13091,.13176E-3,.19753E-3,0
STARLINK-31317,2024-027A,2026-05-18T00:18:51.431328,15.30172577,.0001285,53.1604,347.5115,92.7816,267.3332,0,U,58931,999,12778,-.60495E-4,-.2149E-4,0
STARLINK-31378,2024-027B,2026-05-18T04:35:49.005024,15.31700735,.0000963,53.1630,346.4883,54.9427,305.1665,0,U,58932,999,12797,.46855E-4,.1089E-4,0
STARLINK-31350,2024-027C,2026-05-18T00:09:41.662080,15.30130092,.0000768,53.1600,347.4702,121.8613,238.2462,0,U,58933,999,12794,.45279E-3,.13046E-3,0
STARLINK-31337,2024-027D,2026-05-18T00:05:10.324608,15.30135382,.00007,53.1588,347.4516,133.0524,227.0535,0,U,58934,999,12794,.87095E-3,.25473E-3,0
STARLINK-31362,2024-027E,2026-05-17T23:39:29.100672,15.30189612,.0001641,53.1596,348.0538,68.1591,291.9584,0,U,58935,999,12793,.19961E-5,-.3E-5,0
STARLINK-31383,2024-027F,2026-05-17T23:37:57.495072,15.30194436,.000132,53.1609,348.0430,73.4496,286.6650,0,U,58936,999,12793,-.13671E-4,-.764E-5,0
STARLINK-31390,2024-027G,2026-05-17T23:31:53.282784,15.30184226,.0001403,53.1606,348.0165,92.3787,267.7375,0,U,58937,999,12793,-.30187E-4,-.1253E-4,0
STARLINK-31377,2024-027H,2026-05-17T23:36:26.648928,15.30190708,.0001595,53.1604,348.0363,90.7109,269.4074,0,U,58938,999,12793,-.76427E-5,-.586E-5,0
STARLINK-31372,2024-027J,2026-05-17T20:19:13.101024,15.30188427,.00011153,53.1605,348.6032,88.7670,271.3458,0,U,58939,999,12791,-.15476665E-4,-.817E-5,0
STARLINK-31371,2024-027K,2026-05-17T20:17:39.735456,15.30218498,.0003239,53.1555,348.5925,101.1925,258.9440,0,U,58940,999,12791,.68751011E-4,.1678E-4,0
STARLINK-31345,2024-027L,2026-05-18T00:08:10.091904,15.30069021,.0000878,53.1603,347.4637,164.8067,195.2960,0,U,58941,999,12794,.80695E-3,.2352E-3,0
STARLINK-31354,2024-027M,2026-05-18T00:27:34.126272,15.31689597,.0001143,53.1608,347.5462,98.1458,261.9673,0,U,58942,999,12794,-.81932E-4,-.2906E-4,0
